ONEWEB-0156             
1 48052U 21025L   24250.61840124  .00000319  00000+0  83898-3 0  9999
2 48052  87.8855  89.2745 0001663  84.0435 276.0884 13.13471258168439
ONEWEB-0161             
1 48053U 21025M   24250.59140688 -.00000252  00000+0 -72432-3 0  9995
2 48053  87.8859  89.2888 0001846  90.2246 269.9094 13.13466456168364
ONEWEB-0158             
1 48054U 21025N   24250.55333187  .00000162  00000+0  40800-3 0  9992
2 48054  87.8856  89.2853 0001567  81.3945 278.7361 13.13467435168487
ONEWEB-0157             
1 48055U 21025P   24250.57714485 -.00000212  00000+0 -61567-3 0  9990
2 48055  87.8854  89.2942 0001839  83.5858 276.5481 13.13470204168425
ONEWEB-0162             
1 48056U 21025Q   24250.61682069  .00000265  00000+0  69160-3 0  9991
2 48056  87.8850  89.2806 0001724  83.7624 276.3701 13.13469206168408
ONEWEB-0155             
1 48057U 21025R   24250.56127049  .00000941  00000+0  25414-2 0  9992
2 48057  87.8855  89.3031 0001776  91.9617 268.1716 13.13468979168530
ONEWEB-0149             
1 48058U 21025S   24250.58190185 -.00000235  00000+0 -67913-3 0  9995
2 48058  87.8854  89.2956 0001734  77.1190 283.0133 13.13466593168349
ONEWEB-0148             
1 48059U 21025T   24250.62317619  .00000331  00000+0  87090-3 0  9997
2 48059  87.8858  89.3007 0002125  70.8747 289.2612 13.13471144168477
ONEWEB-0160             
1 48060U 21025U   24250.56286209 -.00000056  00000+0 -18915-3 0  9998
2 48060  87.8858  89.3087 0000719  80.3295 279.7916 13.13467902168410
ONEWEB-0163             
1 48061U 21025V   24250.62476534  .00000311  00000+0  81645-3 0  9990
2 48061  87.8855  89.2866 0001949  84.3523 275.7829 13.13469332168548
ONEWEB-0159             
1 48062U 21025W   24250.61364918  .00000314  00000+0  82613-3 0  9991
2 48062  87.8854  89.2713 0001875  81.7297 278.4045 13.13471665168469
ONEWEB-0164             
1 48063U 21025X   24250.59617476 -.00000551  00000+0 -15441-2 0  9998
2 48063  87.8855  89.2851 0001583  88.6333 271.4978 13.13469086168447
ONEWEB-0167             
1 48064U 21025Y   24250.54937598  .00000467  00000+0  12442-2 0  9996
2 48064  87.8856  89.3075 0001901  82.5060 277.6285 13.13468789168428
ONEWEB-0166             
1 48065U 21025Z   24250.57078406 -.00000096  00000+0 -29793-3 0  9992
2 48065  87.8851  89.2833 0001751  77.0496 283.0828 13.13470603168501
ONEWEB-0151             
1 48066U 21025AA  24250.57236944 -.00000172  00000+0 -50648-3 0  9994
2 48066  87.8855  89.2984 0001616  90.2239 269.9075 13.13471049168440
ONEWEB-0170             
1 48067U 21025AB  24250.58031246 -.00000417  00000+0 -11762-2 0  9999
2 48067  87.8856  89.2997 0001286 106.4091 253.7179 13.13468505168400
ONEWEB-0168             
1 48068U 21025AC  24250.56603572 -.00000154  00000+0 -45777-3 0  9997
2 48068  87.8860  89.2747 0001731  84.7473 275.3854 13.13468286168413
ONEWEB-0173             
1 48069U 21025AD  24250.55810017  .00000023  00000+0  28479-4 0  9995
2 48069  87.8859  89.2859 0002030  94.0411 266.0950 13.13468506168650
ONEWEB-0171             
1 48070U 21025AE  24250.59459313 -.00000408  00000+0 -11525-2 0  9990
2 48070  87.8858  89.3148 0001665  90.2709 269.8611 13.13468413168476
ONEWEB-0172             
1 48071U 21025AF  24250.57396036 -.00000410  00000+0 -11565-2 0  9998
2 48071  87.8858  89.2854 0001748  90.7256 269.4073 13.13468056169364
ONEWEB-0174             
1 48072U 21025AG  24250.55651631  .00000115  00000+0  27924-3 0  9999
2 48072  87.8858  89.3033 0001725  82.0254 278.1071 13.13468858168681
ONEWEB-0175             
1 48073U 21025AH  24250.58507294 -.00000497  00000+0 -13947-2 0  9992
2 48073  87.8852  89.2810 0001565  99.8982 260.2323 13.13468986168341
ONEWEB-0177             
1 48074U 21025AJ  24250.59776437 -.00000134  00000+0 -40056-3 0  9991
2 48074  87.8852  89.2875 0002082  85.4955 274.6412 13.13472654168535
ONEWEB-0178             
1 48075U 21025AK  24250.61537789  .00000217  00000+0  55864-3 0  9993
2 48075  87.8860  89.3075 0001832  81.9358 278.1979 13.13469208168581
ONEWEB-0108             
1 48076U 21025AL  24250.57555278 -.00000368  00000+0 -10418-2 0  9996
2 48076  87.8852  89.2890 0001559  77.5444 282.5859 13.13467667168505
ONEWEB-0169             
1 48077U 21025AM  24250.60728517 -.00000665  00000+0 -18574-2 0  9990
2 48077  87.8854  89.2948 0001763  72.6638 287.4684 13.13466888167165
ONEWEB-0176             
1 48210U 21031A   24250.50321840 -.00000267  00000+0 -75477-3 0  9997
2 48210  87.8933  58.7044 0001686  87.9841 272.1481 13.14499762163091
ONEWEB-0184             
1 48211U 21031B   24250.55239313  .00000105  00000+0  24842-3 0  9995
2 48211  87.8935  58.6755 0001922 120.6688 239.4631 13.14499884163075
ONEWEB-0179             
1 48212U 21031C   24250.52226294  .00000108  00000+0  25735-3 0  9992
2 48212  87.8937  58.6880 0001825  89.9005 270.2334 13.14500833163114
ONEWEB-0180             
1 48213U 21031D   24250.55557168  .00000124  00000+0  29903-3 0  9992
2 48213  87.8935  58.6768 0001912  88.9510 271.1839 13.14501749163000
ONEWEB-0218             
1 48214U 21031E   24250.50164865 -.00000187  00000+0 -53921-3 0  9994
2 48214  87.8933  58.6892 0002360 118.5630 241.5737 13.14501489163153
ONEWEB-0209             
1 48215U 21031F   24250.49054956 -.00000048  00000+0 -16513-3 0  9994
2 48215  87.8936  58.7272 0001913  89.9779 270.1570 13.14501779163153
ONEWEB-0198             
1 48216U 21031G   24250.55081635  .00000156  00000+0  38659-3 0  9999
2 48216  87.8937  58.7196 0001981  98.1855 261.9499 13.14502239163275
ONEWEB-0189             
1 48217U 21031H   24250.48736941 -.00000007  00000+0 -53603-4 0  9993
2 48217  87.8936  58.7073 0002107  97.8726 262.2643 13.14500450163002
ONEWEB-0196             
1 48218U 21031J   24250.54128078  .00000345  00000+0  89598-3 0  9991
2 48218  87.8938  58.7020 0001707  92.3449 267.7876 13.14504315163017
ONEWEB-0183             
1 48219U 21031K   24250.51592034 -.00000004  00000+0 -44421-4 0  9997
2 48219  87.8935  58.7227 0001820  85.3853 274.7485 13.14501539163100
ONEWEB-0185             
1 48220U 21031L   24250.54207481  .00000221  00000+0  56251-3 0  9993
2 48220  87.8937  58.6890 0001869  85.3800 274.7543 13.14499060163036
ONEWEB-0187             
1 48221U 21031M   24250.51195978 -.00000050  00000+0 -16864-3 0  9996
2 48221  87.8936  58.7286 0001853  89.4312 270.7030 13.14501487163047
ONEWEB-0192             
1 48222U 21031N   24250.49213169 -.00000093  00000+0 -28644-3 0  9993
2 48222  87.8938  58.7302 0001759  94.9792 265.1538 13.14501067162951
ONEWEB-0219             
1 48223U 21031P   24250.54763962  .00001259  00000+0  33610-2 0  9992
2 48223  87.8940  58.6928 0001883  86.8983 273.2362 13.14498358163165
ONEWEB-0202             
1 48224U 21031Q   24250.52861051  .00000169  00000+0  42175-3 0  9995
2 48224  87.8935  58.7150 0002326 107.9228 252.2156 13.14500700163150
ONEWEB-0204             
1 48225U 21031R   24250.48657660 -.00000029  00000+0 -11268-3 0  9996
2 48225  87.8935  58.7354 0001644  76.8784 283.2529 13.14499802163035
ONEWEB-0205             
1 48226U 21031S   24250.53810864  .00000231  00000+0  58985-3 0  9990
2 48226  87.8937  58.6963 0001867  88.4617 271.6727 13.14503307163064
ONEWEB-0206             
1 48227U 21031T   24250.51117764  .00000066  00000+0  14267-3 0  9999
2 48227  87.8896  58.6837 0002126  93.0838 267.0535 13.14503116163003
ONEWEB-0182             
1 48228U 21031U   24250.50638795 -.00000281  00000+0 -79238-3 0  9991
2 48228  87.8937  58.7208 0001655  85.3557 274.7761 13.14503425163213
ONEWEB-0186             
1 48229U 21031V   24250.51749489  .00000011  00000+0 -45155-5 0  9999
2 48229  87.8937  58.6820 0001732  91.8909 268.2419 13.14505890163162
ONEWEB-0181             
1 48230U 21031W   24250.49529058 -.00000459  00000+0 -12721-2 0  9993
2 48230  87.8937  58.7564 0001768  94.9407 265.1924 13.14501688163018
ONEWEB-0188             
1 48231U 21031X   24250.45725377  .00000236  00000+0  60230-3 0  9992
2 48231  87.8936  58.7589 0001770  90.3009 269.8323 13.14502458162914
ONEWEB-0220             
1 48232U 21031Y   24250.49687638 -.00000453  00000+0 -12552-2 0  9990
2 48232  87.8930  58.7105 0002038  86.5347 273.6015 13.14501199163185
ONEWEB-0165             
1 48233U 21031Z   24250.52542295  .00000157  00000+0  39002-3 0  9993
2 48233  87.8935  58.7270 0001865  92.6745 267.4598 13.14504855163146
ONEWEB-0199             
1 48234U 21031AA  24250.50956558 -.00000317  00000+0 -88958-3 0  9997
2 48234  87.8934  58.6985 0001486  93.9872 266.1427 13.14501222163043
ONEWEB-0203             
1 48235U 21031AB  24250.50004189 -.00000519  00000+0 -14353-2 0  9993
2 48235  87.8937  58.7019 0001511 107.2644 252.8651 13.14501471163059
ONEWEB-0197             
1 48236U 21031AC  24250.47546918 -.00000102  00000+0 -30854-3 0  9994
2 48236  87.8938  58.7162 0001668  76.8012 283.3304 13.14500312162969
ONEWEB-0194             
1 48237U 21031AD  24250.53019615  .00000132  00000+0  32197-3 0  9994
2 48237  87.8938  58.6987 0001457  95.8116 264.3179 13.14500394163146
ONEWEB-0193             
1 48238U 21031AE  24250.54604393  .00000264  00000+0  67790-3 0  9992
2 48238  87.8938  58.7037 0001715  94.3148 265.8177 13.14499983163099
ONEWEB-0191             
1 48239U 21031AF  24250.48102926  .00000060  00000+0  12776-3 0  9999
2 48239  87.8935  58.6978 0001725  95.7598 264.3728 13.14503213162946
ONEWEB-0195             
1 48240U 21031AG  24250.53416001  .00000283  00000+0  72802-3 0  9992
2 48240  87.8934  58.6865 0002051  96.8163 263.3200 13.14500756162937
ONEWEB-0201             
1 48241U 21031AH  24250.52304232  .00000120  00000+0  28967-3 0  9997
2 48241  87.8935  58.7256 0001828  92.3965 267.7374 13.14503966163168
ONEWEB-0207             
1 48242U 21031AJ  24250.50242456 -.00000349  00000+0 -97575-3 0  9991
2 48242  87.8935  58.6947 0001798  85.1890 274.9445 13.14503140163071
